{"type":"FeatureCollection","features":[{"type":"Feature","properties":{"tur":"kiyi"},"geometry":{"type":"MultiLineString","coordinates":[[[29.50656,40.73165],[29.50623,40.73166],[29.50622,40.7326],[29.50219,40.73253],[29.50233,40.73],[29.50122,40.72922],[29.5015,40.72893],[29.50092,40.72859],[29.50066,40.72891],[29.50008,40.72862],[29.49998,40.72816],[29.49902,40.72815],[29.49905,40.72557],[29.49654,40.72406],[29.49588,40.72489],[29.49619,40.72438],[29.49554,40.72438],[29.49564,40.72412],[29.49528,40.72401],[29.49298,40.72696],[29.49336,40.72604],[29.49275,40.7258],[29.49185,40.72732],[29.49152,40.72722],[29.49178,40.72677],[29.4913,40.72659],[29.49193,40.72556],[29.49121,40.7253],[29.49132,40.72513],[29.48853,40.724],[29.48835,40.72434],[29.48651,40.72372],[29.48577,40.72495],[29.48477,40.7246],[29.48561,40.72298],[29.48334,40.72214],[29.48275,40.72295],[29.48299,40.72204],[29.48208,40.72162],[29.48152,40.72194],[29.4818,40.72142],[29.48141,40.7212],[29.48095,40.72164],[29.48118,40.72129],[29.48066,40.72105],[29.48034,40.72131],[29.48063,40.72086],[29.4797,40.72036],[29.47924,40.72051],[29.47952,40.72029],[29.47894,40.72022],[29.47912,40.72006],[29.47852,40.71945],[29.47848,40.71887],[29.47659,40.71981],[29.47838,40.71876],[29.47578,40.71657],[29.47465,40.71702],[29.47541,40.71644],[29.47463,40.71571],[29.47427,40.71468],[29.47284,40.71327],[29.47224,40.71297],[29.47068,40.71386],[29.47214,40.71287],[29.4715,40.71293],[29.47199,40.71267],[29.47165,40.71234],[29.47081,40.71265],[29.47123,40.71216],[29.47073,40.71163],[29.46923,40.71243],[29.46877,40.71198],[29.46951,40.7116],[29.46909,40.7112],[29.46697,40.71239],[29.46671,40.71209],[29.47163,40.70964],[29.47181,40.70925],[29.4729,40.70905],[29.47284,40.70886],[29.46619,40.71049],[29.46611,40.7103],[29.46897,40.70951],[29.46896,40.70878],[29.46943,40.70859],[29.46861,40.70714],[29.46796,40.70733],[29.46777,40.70659],[29.46826,40.70634],[29.46706,40.70516],[29.46719,40.70433],[29.46668,40.70417],[29.46693,40.70391],[29.4666,40.70341],[29.46528,40.70257],[29.46596,40.70206],[29.46537,40.70235],[29.46426,40.70113],[29.46516,40.70037],[29.46299,40.70153],[29.46353,40.70093],[29.46322,40.70067],[29.46274,40.7009],[29.46168,40.70014],[29.4617,40.69971],[29.46126,40.7001],[29.46158,40.69967],[29.46136,40.69954],[29.46093,40.69991],[29.46142,40.69937],[29.46089,40.69962],[29.46141,40.69867],[29.46083,40.69879],[29.45984,40.69788],[29.45888,40.69789],[29.45823,40.69966],[29.45829,40.69874],[29.45745,40.69856],[29.45645,40.70085],[29.45721,40.69854],[29.45592,40.69828],[29.45702,40.69545],[29.45657,40.69532],[29.45647,40.69586],[29.45618,40.69584],[29.45402,40.69521],[29.45332,40.6981],[29.45187,40.69794],[29.45226,40.69538],[29.4485,40.69405],[29.44709,40.6939],[29.44627,40.69449],[29.44575,40.6944],[29.44624,40.69392],[29.44571,40.69324],[29.44378,40.69216],[29.4418,40.69161],[29.44078,40.69342],[29.43932,40.69293],[29.44056,40.69074],[29.4369,40.68961],[29.43607,40.68955],[29.43445,40.69007],[29.43469,40.69108],[29.43361,40.69142],[29.43279,40.69153],[29.43279,40.69128],[29.43127,40.69073],[29.42957,40.69318],[29.42756,40.6925],[29.42975,40.6888],[29.42695,40.68829],[29.42337,40.6888],[29.4141,40.69174],[29.40924,40.69409],[29.40905,40.69428],[29.4102,40.69541],[29.40938,40.69524],[29.40762,40.69583],[29.40855,40.69678],[29.4083,40.6969],[29.4072,40.69548],[29.40756,40.69666],[29.4074,40.69689],[29.40737,40.69609],[29.40644,40.695],[29.40623,40.69535],[29.40672,40.69611],[29.40695,40.69678],[29.4063,40.696],[29.40449,40.69647],[29.40397,40.69629],[29.40432,40.69664],[29.40074,40.69866],[29.40057,40.69905],[29.39818,40.69984],[29.39349,40.70212],[29.39074,40.70156],[29.38748,40.70027],[29.38261,40.70105],[29.38197,40.70148],[29.37772,40.70023],[29.37522,40.69875],[29.37429,40.69885],[29.37328,40.69747],[29.37057,40.6962],[29.37003,40.69648],[29.37019,40.69592],[29.36949,40.69625],[29.3698,40.69656],[29.36938,40.69636],[29.36952,40.69603],[29.36834,40.69475],[29.36562,40.69242],[29.36393,40.69039],[29.36044,40.68688],[29.35913,40.68597],[29.35683,40.68343],[29.35499,40.68199],[29.35424,40.6817],[29.35351,40.68189],[29.34798,40.67669],[29.34264,40.67342],[29.33712,40.67198],[29.32966,40.67126],[29.32828,40.67144],[29.32821,40.67121],[29.3283,40.67158],[29.32352,40.67033],[29.31583,40.66912],[29.31444,40.66935],[29.31293,40.66892],[29.31214,40.66921],[29.29932,40.66499],[29.2924,40.66368],[29.29023,40.66352],[29.29039,40.66399],[29.28576,40.66182],[29.28071,40.65996],[29.27965,40.66028],[29.27974,40.66115],[29.27956,40.6604],[29.27915,40.66042],[29.27918,40.66082],[29.27888,40.66084],[29.27898,40.6617],[29.27789,40.66211],[29.27592,40.66185],[29.27489,40.66118],[29.27595,40.66177],[29.27768,40.66195],[29.2784,40.66146],[29.27801,40.66114],[29.27727,40.6616],[29.27797,40.6611],[29.2776,40.66078],[29.27667,40.66137],[29.27756,40.66075],[29.27717,40.66043],[29.27609,40.66117],[29.27713,40.66039],[29.27674,40.66008],[29.27578,40.66075],[29.27646,40.66021],[29.27606,40.65989],[29.27538,40.66008],[29.27538,40.66037],[29.27495,40.66052],[29.27481,40.66029],[29.27396,40.66083],[29.27406,40.66187],[29.27374,40.66156],[29.27369,40.66037],[29.27058,40.66027],[29.27018,40.65963],[29.26987,40.65963],[29.27016,40.66038],[29.26996,40.66044],[29.2696,40.65991],[29.26791,40.66],[29.26898,40.65941],[29.26776,40.65871],[29.26676,40.65908],[29.26785,40.66046],[29.26733,40.66026],[29.26641,40.65879],[29.26607,40.65875],[29.26568,40.66004],[29.26653,40.66029],[29.26581,40.66033],[29.26542,40.65997],[29.26577,40.65862],[29.263,40.65776],[29.25901,40.65752],[29.25698,40.65822],[29.2538,40.65827],[29.25249,40.65869],[29.25097,40.65858],[29.25038,40.6581],[29.24846,40.65832],[29.24705,40.65875],[29.24703,40.66062],[29.24671,40.65984],[29.24584,40.65987],[29.24677,40.65976],[29.24682,40.65868],[29.24501,40.65875],[29.24471,40.65887],[29.24476,40.6592],[29.24463,40.65878],[29.24365,40.65895],[29.24282,40.65755],[29.24202,40.6575],[29.24195,40.65774],[29.24252,40.65789],[29.24281,40.65897],[29.24493,40.66006],[29.24567,40.66114],[29.2435,40.6595],[29.24087,40.65917],[29.24019,40.65957],[29.23989,40.65915],[29.23617,40.65844],[29.22301,40.65684],[29.20185,40.65583],[29.19553,40.6562],[29.19222,40.65677],[29.19189,40.65738],[29.19001,40.65759],[29.18998,40.65726],[29.17121,40.6552],[29.16434,40.65601],[29.16117,40.6556],[29.15777,40.65618],[29.1542,40.65736],[29.15379,40.65819],[29.15282,40.65857],[29.15312,40.65892],[29.1542,40.65864],[29.1532,40.65904],[29.15262,40.6587],[29.15131,40.65904],[29.15095,40.65999],[29.14694,40.66096],[29.14387,40.66109],[29.14364,40.66066],[29.14405,40.65913],[29.14533,40.65851],[29.14553,40.65743],[29.14438,40.65511],[29.14034,40.65103],[29.13627,40.64866],[29.1346,40.64819],[29.13137,40.64789],[29.12923,40.64809],[29.12859,40.64857],[29.12857,40.64899],[29.1313,40.65017],[29.123,40.64748],[29.12249,40.64748],[29.12245,40.64772],[29.11907,40.647],[29.11797,40.64707],[29.11801,40.64663],[29.11732,40.64679],[29.11667,40.64618],[29.11589,40.64721],[29.11571,40.64701],[29.11652,40.64613],[29.11576,40.64609],[29.11548,40.64545],[29.114,40.64481],[29.10981,40.64381],[29.10453,40.64326],[29.097,40.64348],[29.0925,40.64435],[29.09089,40.6453],[29.08529,40.64519],[29.08122,40.6457],[29.07881,40.64645],[29.0789,40.64605],[29.07879,40.64636],[29.0752,40.64518],[29.07372,40.64487],[29.07339,40.64506],[29.07333,40.64482],[29.07075,40.64406],[29.0677,40.64404],[29.06363,40.64463],[29.05854,40.64591],[29.05789,40.64648],[29.05688,40.64636],[29.05577,40.64669],[29.05374,40.64779],[29.05282,40.64798],[29.05026,40.64764],[29.04705,40.64848],[29.04604,40.64799],[29.046,40.64761],[29.04358,40.64683],[29.0394,40.64712],[29.03845,40.64634],[29.03548,40.64594],[29.02969,40.64691],[29.02552,40.64598],[29.02463,40.64656],[29.02305,40.64649],[29.02231,40.64602],[29.02045,40.64578],[29.01739,40.6448],[29.01662,40.64464],[29.01541,40.64491],[29.01516,40.64438],[29.01264,40.64398],[29.01156,40.64426],[29.01044,40.64521],[29.01024,40.64488],[29.00918,40.64515],[29.00881,40.64603],[29.00686,40.64657],[29.00662,40.64527],[29.00369,40.6447],[29.00033,40.64467],[28.99714,40.64515],[28.9966,40.64585],[28.99401,40.64464],[28.99088,40.64422],[28.98952,40.6428],[28.98454,40.64048],[28.98039,40.63972],[28.97773,40.63797],[28.97484,40.63712],[28.97354,40.63715],[28.97189,40.63597],[28.96939,40.63503],[28.96787,40.63397],[28.96589,40.63385],[28.96502,40.63209],[28.96252,40.63052],[28.96117,40.62879],[28.96012,40.6281],[28.9583,40.62587],[28.95685,40.62295],[28.95395,40.61994],[28.95234,40.61762],[28.95223,40.6171],[28.95426,40.61977],[28.95539,40.61934],[28.95544,40.61881],[28.95453,40.61752],[28.95386,40.61773],[28.95446,40.61733],[28.95342,40.61468],[28.95295,40.61451],[28.95277,40.614],[28.94915,40.61171],[28.94359,40.60942],[28.94154,40.60802],[28.94117,40.60805],[28.93974,40.60639],[28.93608,40.6034],[28.93387,40.60195],[28.93311,40.60189],[28.93327,40.60149],[28.93301,40.60128],[28.93049,40.6001],[28.92956,40.59998],[28.9296,40.59975],[28.92892,40.59947],[28.92822,40.59942],[28.92791,40.59902],[28.92496,40.59839],[28.92316,40.59683],[28.92194,40.59675],[28.92184,40.59625],[28.92005,40.59546],[28.91204,40.59308],[28.90553,40.59166],[28.9021,40.58841],[28.89673,40.58633],[28.89456,40.58447],[28.88918,40.58221],[28.8867,40.58173],[28.88437,40.58074],[28.8795,40.57965],[28.87725,40.5788],[28.87439,40.57857],[28.87378,40.57803],[28.8719,40.57738],[28.86957,40.57697],[28.86781,40.57593],[28.8597,40.57485],[28.85692,40.57367],[28.8528,40.57276],[28.85065,40.57272],[28.84744,40.57121],[28.84573,40.57083],[28.84494,40.57007],[28.84217,40.56927],[28.8393,40.56908],[28.83895,40.56812],[28.83829,40.56751],[28.83539,40.56632],[28.83203,40.56574],[28.82833,40.56598],[28.82489,40.56557],[28.82367,40.56571],[28.82245,40.56479],[28.81859,40.56543],[28.81802,40.5649],[28.81582,40.56425],[28.81511,40.56318],[28.81279,40.56214],[28.81165,40.56055],[28.81101,40.55989],[28.81014,40.55956],[28.80996,40.55908],[28.80759,40.55852],[28.80606,40.5586],[28.80625,40.55826],[28.80562,40.55787],[28.8038,40.55758],[28.8033,40.55715],[28.80306,40.5573],[28.80281,40.55632],[28.80183,40.55544],[28.79944,40.55495],[28.79791,40.55427],[28.7964,40.55339],[28.7961,40.55245],[28.79362,40.55182],[28.79256,40.55097],[28.7921,40.5496],[28.79209,40.54815],[28.79002,40.54604],[28.78973,40.54479],[28.79016,40.54324],[28.7886,40.54024],[28.78738,40.53915],[28.78601,40.53849],[28.78327,40.53746],[28.78267,40.53753],[28.78046,40.53447],[28.7808,40.53181],[28.77964,40.5295],[28.78042,40.52754],[28.78025,40.52654],[28.77968,40.52581],[28.7806,40.52436],[28.78011,40.52293],[28.78045,40.5224],[28.78037,40.52183],[28.78099,40.52144],[28.78123,40.52068],[28.78088,40.5182],[28.7829,40.51772],[28.78353,40.51789],[28.78508,40.51708],[28.78664,40.51763],[28.78773,40.51728],[28.78843,40.51767],[28.79148,40.51744],[28.79321,40.51675],[28.79753,40.51387],[28.7989,40.51429],[28.8041,40.51356],[28.80799,40.51362],[28.81127,40.51261],[28.81303,40.51251],[28.81554,40.51161],[28.82028,40.51205],[28.82214,40.51123],[28.82429,40.50969],[28.82458,40.50912],[28.82452,40.50987],[28.82482,40.51009],[28.82588,40.50791],[28.82875,40.50796],[28.82871,40.50827],[28.82609,40.50822],[28.82572,40.50937],[28.828,40.50942],[28.82807,40.50877],[28.82852,40.50982],[28.8293,40.50972],[28.82946,40.50938],[28.82952,40.50958],[28.83046,40.50948],[28.83054,40.50924],[28.83105,40.50937],[28.83147,40.50922],[28.83137,40.50897],[28.83196,40.50911],[28.83218,40.50877],[28.83349,40.50888],[28.83448,40.50856],[28.83796,40.50889],[28.83805,40.50805],[28.83806,40.50905],[28.83999,40.50937],[28.84078,40.50886],[28.84142,40.50883],[28.84128,40.50865],[28.84158,40.50851],[28.84157,40.50875],[28.8422,40.50885],[28.84487,40.50796],[28.84569,40.50808],[28.84824,40.50638],[28.84819,40.50608],[28.84899,40.50611],[28.84913,40.50574],[28.85078,40.50624],[28.85173,40.5058],[28.85169,40.50607],[28.85255,40.50644],[28.85411,40.50597],[28.85444,40.50612],[28.8578,40.50364],[28.85771,40.50339],[28.85809,40.50327],[28.85976,40.50109],[28.86062,40.49915],[28.86447,40.49775],[28.86758,40.49536],[28.86907,40.4937],[28.87148,40.49276],[28.87354,40.49131],[28.87576,40.48818],[28.87606,40.4883],[28.8768,40.48776],[28.87925,40.48448],[28.88011,40.48414],[28.88184,40.48131],[28.88184,40.48043],[28.88398,40.47893],[28.88413,40.47913],[28.88221,40.48052],[28.88283,40.48106],[28.88428,40.48007],[28.88413,40.47985],[28.88466,40.47987],[28.88584,40.47894],[28.88525,40.47829],[28.88619,40.47873],[28.88861,40.4782],[28.88925,40.47767],[28.88981,40.47782],[28.89055,40.47714],[28.89097,40.47737],[28.89286,40.47655],[28.89332,40.47715],[28.89517,40.47697],[28.89713,40.47543],[28.89788,40.47546],[28.8998,40.47296],[28.90041,40.47261],[28.90201,40.47279],[28.90479,40.47207],[28.9084,40.47248],[28.91042,40.47162],[28.91108,40.47169],[28.91255,40.4707],[28.91483,40.47074],[28.91548,40.47045],[28.91614,40.46934],[28.91695,40.46873],[28.91813,40.46882],[28.9196,40.46821],[28.92147,40.46629],[28.92523,40.46567],[28.92981,40.46561],[28.9323,40.46376],[28.93313,40.46389],[28.93711,40.46322],[28.94151,40.46336],[28.9425,40.46283],[28.94382,40.46341],[28.94532,40.46304],[28.9469,40.46404],[28.94825,40.46402],[28.94949,40.46352],[28.95129,40.46331],[28.9522,40.46281],[28.95326,40.46316],[28.95542,40.46253],[28.95818,40.46285],[28.95939,40.46225],[28.96131,40.46226],[28.96278,40.46162],[28.96471,40.46176],[28.96412,40.46126],[28.96486,40.46183],[28.96549,40.46181],[28.96626,40.46101],[28.96678,40.46228],[28.96695,40.46084],[28.96879,40.46065],[28.96898,40.45985],[28.96993,40.46032],[28.9705,40.46005],[28.97272,40.4574],[28.97406,40.45651],[28.97515,40.45623],[28.97725,40.45673],[28.97746,40.4578],[28.97983,40.4601],[28.98007,40.46225],[28.98049,40.46308],[28.98206,40.46412],[28.98349,40.46433],[28.98472,40.46409],[28.98643,40.46456],[28.98853,40.46439],[28.98932,40.46601],[28.99017,40.46656],[28.99268,40.46703],[28.99441,40.46648],[28.99545,40.46786],[28.99633,40.46837],[29.00064,40.46822],[29.00208,40.46994],[29.00289,40.47031],[29.00461,40.47034],[29.00672,40.46961],[29.00715,40.4698],[29.00736,40.47047],[29.00842,40.47085],[29.00962,40.47067],[29.01026,40.4701],[29.01162,40.47058],[29.01308,40.47022],[29.01365,40.47098],[29.01462,40.47113],[29.01683,40.47055],[29.0174,40.4722],[29.01823,40.47295],[29.01911,40.4732],[29.01897,40.47369],[29.01945,40.47474],[29.02063,40.47642],[29.02602,40.47924],[29.02987,40.47929],[29.03111,40.47866],[29.03232,40.4791],[29.03114,40.47885],[29.03089,40.47913],[29.03163,40.47982],[29.0337,40.48005],[29.03646,40.47927],[29.03931,40.47912],[29.0408,40.47976],[29.04684,40.47904],[29.04852,40.47942],[29.04994,40.47912],[29.05126,40.47829],[29.05211,40.47888],[29.05488,40.4792],[29.05737,40.47782],[29.06077,40.47732],[29.06265,40.47851],[29.06397,40.47875],[29.06729,40.47808],[29.07015,40.47691],[29.07237,40.47697],[29.0737,40.47749],[29.07507,40.47744],[29.07636,40.47789],[29.07766,40.47784],[29.07904,40.47724],[29.08212,40.47786],[29.08378,40.47731],[29.08485,40.47626],[29.08489,40.47559],[29.08545,40.4765],[29.08542,40.47586],[29.08661,40.47537],[29.09039,40.47497],[29.09295,40.47376],[29.09794,40.4687],[29.09842,40.46786],[29.10275,40.46668],[29.10474,40.46474],[29.10662,40.46221],[29.10771,40.46157],[29.10916,40.46127],[29.11234,40.45906],[29.11314,40.45893],[29.11497,40.45686],[29.12152,40.45541],[29.12318,40.45259],[29.12478,40.4522],[29.12647,40.45103],[29.12763,40.44969],[29.12924,40.44903],[29.13022,40.44805],[29.13078,40.44802],[29.1324,40.44505],[29.13605,40.44358],[29.13826,40.44146],[29.14909,40.43745],[29.14909,40.43644],[29.14937,40.4373],[29.15125,40.43623],[29.15209,40.43289],[29.15284,40.43202],[29.15321,40.43029],[29.15441,40.42883],[29.15455,40.42522],[29.15479,40.42486],[29.15472,40.42451],[29.15362,40.42461],[29.1543,40.42435],[29.15426,40.42369],[29.15334,40.42281],[29.15263,40.42313],[29.15141,40.42215],[29.15051,40.42236],[29.15107,40.42339],[29.15027,40.42241],[29.14838,40.42325],[29.14593,40.42365],[29.14462,40.42323],[29.14269,40.42203],[29.14099,40.42184],[29.13814,40.42266],[29.13684,40.42249],[29.13563,40.42309],[29.13426,40.42172],[29.13357,40.42162],[29.13315,40.42192],[29.13192,40.42068],[29.12847,40.4202],[29.12804,40.42059],[29.12752,40.41989],[29.12649,40.41934],[29.12487,40.41912],[29.12396,40.41937],[29.12153,40.41736],[29.1203,40.41712],[29.11858,40.41738],[29.11855,40.41768],[29.11736,40.41724],[29.11658,40.41768],[29.11959,40.4194],[29.1194,40.4196],[29.11727,40.41841],[29.10531,40.41712],[29.10617,40.41529],[29.10554,40.41518],[29.102,40.41596],[29.10012,40.41686],[29.10019,40.41718],[29.09603,40.41891],[29.09468,40.41885],[29.09032,40.41679],[29.08603,40.41925],[29.08583,40.41907],[29.08807,40.41756],[29.0878,40.41685],[29.08588,40.41712],[29.08814,40.41668],[29.08775,40.41604],[29.08873,40.41532],[29.08842,40.41482],[29.0872,40.41512],[29.08618,40.4144],[29.08018,40.41782],[29.07996,40.41758],[29.08276,40.41606],[29.08121,40.41448],[29.0832,40.41321],[29.08255,40.41214],[29.07857,40.41427],[29.07581,40.41421],[29.07582,40.4139],[29.07834,40.41396],[29.08238,40.41195],[29.08102,40.4104],[29.08286,40.4094],[29.08234,40.40883],[29.08074,40.40815],[29.07967,40.40858],[29.07957,40.40809],[29.07877,40.40772],[29.07762,40.40385],[29.07558,40.3996],[29.07042,40.39242],[29.06869,40.39081],[29.0677,40.39051],[29.0677,40.38891],[29.06908,40.38781],[29.07017,40.386],[29.07015,40.3808],[29.06899,40.37581],[29.06731,40.37258],[29.06462,40.3692],[29.06329,40.3678],[29.0615,40.36676],[29.05865,40.36442],[29.05236,40.36243],[29.05122,40.36234],[29.04413,40.36315],[29.0441,40.36339],[29.044,40.36318],[29.04242,40.36329],[29.03527,40.36411],[29.03409,40.36459],[29.03388,40.36414],[29.03213,40.364],[29.03227,40.3649],[29.03452,40.36521],[29.032,40.36527],[29.03158,40.36497],[29.03165,40.3643],[29.0311,40.36392],[29.03211,40.36368],[29.03066,40.36365],[29.03032,40.36395],[29.03035,40.36366],[29.02856,40.36261],[29.02609,40.36193],[29.024,40.3618],[29.02391,40.36255],[29.0239,40.36176],[29.0233,40.36159],[29.02243,40.36173],[29.01945,40.36092],[29.01426,40.36064],[29.01241,40.36021],[29.00971,40.36023],[29.00708,40.35924],[29.00424,40.35954],[29.00113,40.35933],[28.99403,40.35829],[28.99315,40.35868],[28.99029,40.35737],[28.98509,40.35625],[28.98318,40.35652],[28.97899,40.35584],[28.9752,40.35606],[28.97343,40.35581],[28.96498,40.35857],[28.96043,40.35915],[28.95849,40.35874],[28.95175,40.35897],[28.94921,40.35787],[28.94693,40.35646],[28.94493,40.35609],[28.94131,40.35634],[28.93988,40.35686],[28.93752,40.35591],[28.9359,40.35587],[28.93426,40.3563],[28.93401,40.3562],[28.93409,40.35577],[28.93355,40.35566],[28.93171,40.35558],[28.93054,40.35592],[28.93089,40.35668],[28.9353,40.35706],[28.93145,40.35703],[28.92977,40.35618],[28.92968,40.35546],[28.92962,40.35658],[28.9291,40.35678],[28.92939,40.35756],[28.92895,40.35684],[28.92858,40.35675],[28.92803,40.35694],[28.92834,40.35773],[28.92791,40.357],[28.92705,40.3572],[28.92624,40.35601],[28.92539,40.356],[28.92198,40.35727],[28.92143,40.35779],[28.92014,40.35806],[28.92028,40.35827],[28.9182,40.3588],[28.9185,40.35923],[28.91815,40.35881],[28.91719,40.35922],[28.91698,40.35967],[28.91666,40.35953],[28.91543,40.36007],[28.91407,40.36086],[28.91416,40.36154],[28.91373,40.36112],[28.91323,40.36126],[28.91233,40.36182],[28.91248,40.36217],[28.91177,40.36198],[28.90846,40.36404],[28.90813,40.36486],[28.90749,40.36492],[28.90301,40.36786],[28.90277,40.36823],[28.90301,40.36852],[28.90252,40.36886],[28.90183,40.3692],[28.90127,40.36868],[28.90033,40.36875],[28.89852,40.36964],[28.89847,40.37029],[28.8978,40.37083],[28.89571,40.37145],[28.89521,40.37068],[28.89453,40.37069],[28.89241,40.37174],[28.88917,40.37387],[28.88964,40.37511],[28.88878,40.3756],[28.88942,40.375],[28.88907,40.37439],[28.88859,40.37454],[28.88453,40.37787],[28.88483,40.37829],[28.88448,40.37901],[28.88466,40.37836],[28.88422,40.378],[28.88275,40.37944],[28.88214,40.37952],[28.87977,40.38128],[28.87967,40.38164],[28.87722,40.3821],[28.87718,40.3825],[28.87686,40.3822],[28.87527,40.38255],[28.87301,40.3825],[28.87261,40.38276],[28.87266,40.38318],[28.8724,40.38269],[28.87191,40.38271],[28.87195,40.3832],[28.87149,40.38285],[28.87171,40.3833],[28.87123,40.38293],[28.87148,40.38338],[28.87119,40.38294],[28.87098,40.38301],[28.87119,40.38346],[28.87075,40.38307],[28.87099,40.38353],[28.87071,40.38308],[28.87048,40.38315],[28.87075,40.3836],[28.87034,40.3832],[28.86989,40.38357],[28.8698,40.38416],[28.87355,40.38354],[28.86974,40.3843],[28.86934,40.38478],[28.86856,40.38453],[28.86557,40.3854],[28.86335,40.3848],[28.86242,40.38484],[28.85934,40.38404],[28.85286,40.38112],[28.8505,40.3809],[28.84946,40.38122],[28.84799,40.38085],[28.84798,40.38116],[28.84773,40.38082],[28.84659,40.38175],[28.84411,40.38128],[28.84194,40.38164],[28.84099,40.38263],[28.83679,40.38292],[28.83648,40.38369],[28.83113,40.38344],[28.82937,40.38373],[28.82864,40.38418],[28.82877,40.38463],[28.82833,40.38468],[28.82819,40.38532],[28.82856,40.38543],[28.82903,40.38499],[28.82879,40.38538],[28.82775,40.38571],[28.82734,40.38621],[28.82611,40.38583],[28.82555,40.38598],[28.82421,40.38708],[28.82299,40.38703],[28.82158,40.38786],[28.81947,40.38829],[28.81488,40.39107],[28.81309,40.39083],[28.8121,40.39105],[28.81117,40.3917],[28.80395,40.39103],[28.80231,40.39132],[28.80242,40.39195],[28.80191,40.39219],[28.80209,40.39199],[28.80176,40.39156],[28.80132,40.39171],[28.80147,40.39191],[28.801,40.39195],[28.80006,40.39276],[28.80089,40.39317],[28.80317,40.39241],[28.80332,40.39259],[28.80099,40.39338],[28.79945,40.39296],[28.79653,40.39424],[28.79395,40.39374],[28.79109,40.39397],[28.78255,40.39338],[28.77769,40.39438],[28.77421,40.39398],[28.77132,40.39422],[28.76777,40.39334],[28.7662,40.39223],[28.7645,40.39149],[28.76383,40.3915],[28.76314,40.39099],[28.7591,40.39054],[28.75808,40.39005],[28.7564,40.38981],[28.75405,40.39011],[28.7527,40.38987],[28.75124,40.38912],[28.75082,40.38929],[28.74965,40.38876],[28.74964,40.38825],[28.74862,40.38788],[28.74661,40.38791],[28.74492,40.38742],[28.74389,40.38667],[28.74153,40.38661],[28.74181,40.38635],[28.74143,40.38562],[28.73917,40.38597],[28.73831,40.38508],[28.73812,40.38406],[28.73677,40.38395],[28.73642,40.38331],[28.73575,40.38332],[28.73539,40.38243],[28.73438,40.38219],[28.73337,40.3822],[28.73269,40.38183],[28.7327,40.38234],[28.73203,40.38235],[28.73204,40.38286],[28.72734,40.38281],[28.72649,40.38243],[28.7258,40.38167],[28.72577,40.38039],[28.72543,40.38014],[28.72574,40.37911],[28.72407,40.3789],[28.72356,40.37914],[28.7237,40.37811],[28.72283,40.37765],[28.7215,40.37816],[28.71782,40.37807],[28.71579,40.37759],[28.71432,40.37685],[28.71073,40.37638],[28.69967,40.37731],[28.69696,40.37607],[28.69528,40.37609],[28.6929,40.3751],[28.68853,40.37491],[28.6882,40.37517],[28.68485,40.37522],[28.68149,40.37501],[28.68115,40.37476],[28.67948,40.37517],[28.67946,40.37465],[28.67792,40.37425],[28.67746,40.37437],[28.67746,40.37466],[28.67684,40.37442],[28.67564,40.37461],[28.67547,40.37348],[28.67443,40.37342],[28.67421,40.37253],[28.67641,40.37203],[28.67684,40.37177],[28.67725,40.37074],[28.67705,40.37014],[28.6758,40.36926],[28.67558,40.36844],[28.67597,40.36923],[28.67686,40.36994],[28.67747,40.36937],[28.67809,40.36773],[28.67781,40.36648],[28.67717,40.36577],[28.67446,40.36393],[28.67058,40.36243],[28.66536,40.3615],[28.65742,40.36101],[28.65684,40.36132],[28.65213,40.36144]],[[29.75174,40.71779],[29.74701,40.71684],[29.74556,40.71545],[29.74483,40.71532],[29.74489,40.71506],[29.74396,40.71437],[29.74328,40.71419],[29.73274,40.71305],[29.7297,40.71182],[29.72659,40.7117],[29.72653,40.71197],[29.72749,40.71242],[29.72639,40.71205],[29.72645,40.71168],[29.72538,40.71106],[29.72385,40.71071],[29.72402,40.71108],[29.72366,40.71102],[29.72374,40.7107],[29.72171,40.71037],[29.71976,40.71065],[29.7179,40.71153],[29.71447,40.71169],[29.71277,40.71127],[29.70923,40.70906],[29.70574,40.70777],[29.70134,40.70722],[29.69964,40.70744],[29.69963,40.70765],[29.69954,40.70744],[29.69697,40.70776],[29.69667,40.70806],[29.69632,40.70763],[29.69333,40.7071],[29.6923,40.70651],[29.69197,40.707],[29.69219,40.70646],[29.69016,40.70602],[29.68997,40.70629],[29.69002,40.70589],[29.68905,40.706],[29.68899,40.70626],[29.68971,40.70674],[29.68891,40.70667],[29.68842,40.7059],[29.68724,40.7051],[29.68577,40.7049],[29.68401,40.7053],[29.68311,40.70504],[29.68089,40.70355],[29.6789,40.70294],[29.67288,40.70296],[29.67155,40.70318],[29.67161,40.70349],[29.6714,40.70317],[29.66876,40.70382],[29.6676,40.70458],[29.6677,40.70476],[29.6654,40.70513],[29.66367,40.70452],[29.66142,40.70246],[29.6598,40.70188],[29.65998,40.70163],[29.65771,40.70156],[29.658,40.70197],[29.65959,40.70219],[29.65561,40.70185],[29.6522,40.70024],[29.65085,40.699],[29.64826,40.69733],[29.64418,40.69579],[29.64225,40.69589],[29.64115,40.69559],[29.63686,40.69621],[29.63373,40.69612],[29.63022,40.69541],[29.62839,40.69643],[29.62619,40.69576],[29.62042,40.69608],[29.61861,40.69646],[29.61572,40.69448],[29.61498,40.69421],[29.61461,40.69473],[29.61486,40.69437],[29.61453,40.69425],[29.61493,40.69416],[29.61436,40.69393],[29.61292,40.69351],[29.61206,40.69359],[29.61191,40.69333],[29.61158,40.69378],[29.61059,40.6936],[29.61143,40.69314],[29.61071,40.69325],[29.61003,40.69402],[29.60947,40.69398],[29.60901,40.69354],[29.60996,40.69396],[29.61047,40.69339],[29.60431,40.69271],[29.60185,40.6921],[29.59582,40.69227],[29.59235,40.6905],[29.59143,40.69063],[29.59021,40.69042],[29.59008,40.69015],[29.5915,40.69042],[29.59098,40.68991],[29.59051,40.68977],[29.59029,40.69006],[29.59035,40.68965],[29.58538,40.68844],[29.58396,40.68849],[29.58172,40.68933],[29.57154,40.68912],[29.57159,40.68884],[29.56667,40.68758],[29.56426,40.6864],[29.562,40.68644],[29.55965,40.68699],[29.5583,40.6866],[29.55798,40.68702],[29.55784,40.6866],[29.55697,40.68645],[29.555,40.68775],[29.553,40.68984],[29.55071,40.69157],[29.55022,40.69257],[29.55158,40.69283],[29.55238,40.69234],[29.55145,40.69297],[29.54983,40.69262],[29.54586,40.69702],[29.54484,40.69858],[29.54406,40.70065],[29.5457,40.70127],[29.54555,40.70148],[29.54498,40.70146],[29.54528,40.70127],[29.54429,40.70086],[29.54377,40.70156],[29.54411,40.7008],[29.5436,40.70065],[29.54231,40.70231],[29.54325,40.70262],[29.54368,40.70205],[29.54332,40.70263],[29.54231,40.70241],[29.54184,40.7029],[29.54057,40.70293],[29.53994,40.70331],[29.53844,40.70507],[29.53698,40.70767],[29.53626,40.70791],[29.53369,40.7126],[29.53171,40.71394],[29.53037,40.71418],[29.5304,40.71468],[29.52982,40.71541],[29.52911,40.71551],[29.52079,40.72114],[29.51934,40.72445],[29.51687,40.7334]]]}},{"type":"Feature","properties":{"tur":"gol"},"geometry":{"type":"Polygon","coordinates":[[[29.31675,40.21423],[29.32032,40.22146],[29.32392,40.2215],[29.32466,40.22195],[29.32593,40.22421],[29.32672,40.22443],[29.33148,40.22237],[29.33399,40.22288],[29.33483,40.22418],[29.33768,40.22437],[29.33901,40.222],[29.34105,40.22068],[29.34141,40.21894],[29.34102,40.21838],[29.3393,40.21823],[29.3378,40.21739],[29.33632,40.2153],[29.33462,40.21624],[29.33386,40.21608],[29.33338,40.2134],[29.3325,40.21305],[29.33086,40.21346],[29.33008,40.21176],[29.32806,40.21144],[29.32764,40.21221],[29.32655,40.21277],[29.32633,40.21214],[29.32592,40.21264],[29.32175,40.21376],[29.31821,40.21362],[29.31675,40.21423]]]}},{"type":"Feature","properties":{"tur":"gol"},"geometry":{"type":"Polygon","coordinates":[[[29.12602,40.28782],[29.1231,40.28615],[29.12346,40.2855],[29.12264,40.28506],[29.12184,40.28574],[29.12016,40.28586],[29.1199,40.285],[29.1205,40.28387],[29.11991,40.28343],[29.11821,40.28668],[29.11639,40.28739],[29.11559,40.28737],[29.11535,40.28682],[29.11452,40.28709],[29.11225,40.28938],[29.11571,40.29043],[29.11692,40.295],[29.11871,40.29651],[29.11756,40.29498],[29.11739,40.29379],[29.11737,40.28973],[29.11769,40.28944],[29.12144,40.2887],[29.12325,40.29048],[29.12766,40.29132],[29.12843,40.29334],[29.13043,40.29583],[29.13127,40.30096],[29.13163,40.30067],[29.13226,40.30186],[29.13307,40.30222],[29.13383,40.30127],[29.13296,40.2984],[29.13367,40.29802],[29.13384,40.29721],[29.13278,40.2969],[29.12989,40.29324],[29.13042,40.29117],[29.1299,40.28966],[29.13065,40.28973],[29.13202,40.28801],[29.13091,40.288],[29.1325,40.28713],[29.13083,40.28584],[29.13006,40.2859],[29.12998,40.28752],[29.1285,40.28849],[29.12722,40.28834],[29.12646,40.28624],[29.12602,40.28782]]]}},{"type":"Feature","properties":{"tur":"gol"},"geometry":{"type":"Polygon","coordinates":[[[29.13643,40.00122],[29.13325,40.00115],[29.13201,40.00204],[29.12901,40.00671],[29.12851,40.00687],[29.1279,40.00617],[29.12694,40.00738],[29.12561,40.00744],[29.12295,40.00866],[29.12013,40.00855],[29.11894,40.00768],[29.11894,40.00852],[29.1172,40.01002],[29.1176,40.01268],[29.12126,40.01263],[29.12262,40.01116],[29.12853,40.01008],[29.13073,40.00919],[29.13257,40.00921],[29.13293,40.00602],[29.13467,40.00418],[29.13498,40.00322],[29.13446,40.00335],[29.13568,40.00144],[29.13643,40.00122]]]}},{"type":"Feature","properties":{"tur":"gol"},"geometry":{"type":"Polygon","coordinates":[[[29.3854,40.13064],[29.38721,40.12989],[29.3852,40.12832],[29.38425,40.12663],[29.38289,40.12697],[29.38069,40.12673],[29.37775,40.12786],[29.377,40.12727],[29.37695,40.12806],[29.37502,40.12749],[29.37284,40.12773],[29.37293,40.12814],[29.37616,40.12891],[29.38068,40.12874],[29.38195,40.12911],[29.37784,40.13299],[29.37334,40.13435],[29.37262,40.13609],[29.37117,40.13692],[29.3709,40.13772],[29.37155,40.13834],[29.37115,40.13743],[29.37305,40.13662],[29.37402,40.13478],[29.37737,40.13428],[29.3787,40.13493],[29.37961,40.1377],[29.37894,40.13889],[29.37637,40.14119],[29.37675,40.14183],[29.37817,40.14146],[29.37774,40.14271],[29.3782,40.14325],[29.38107,40.14165],[29.38293,40.14322],[29.38353,40.14309],[29.38429,40.14201],[29.38447,40.13993],[29.38488,40.13978],[29.38416,40.13942],[29.38455,40.13827],[29.3852,40.13785],[29.38498,40.13709],[29.38426,40.13698],[29.38395,40.1364],[29.38241,40.1368],[29.38139,40.13589],[29.38108,40.13488],[29.38161,40.1333],[29.38047,40.13264],[29.38224,40.13223],[29.38368,40.1304],[29.3854,40.13064]]]}},{"type":"Feature","properties":{"tur":"gol"},"geometry":{"type":"Polygon","coordinates":[[[29.20209,40.60153],[29.202,40.60011],[29.20337,40.5983],[29.202,40.59746],[29.20258,40.59678],[29.20193,40.59681],[29.20282,40.59562],[29.19979,40.59522],[29.19977,40.59476],[29.20056,40.59328],[29.2019,40.5928],[29.20087,40.59259],[29.20061,40.59154],[29.20217,40.5899],[29.20139,40.58988],[29.19988,40.59159],[29.19911,40.59162],[29.19966,40.59249],[29.19863,40.59443],[29.19802,40.59433],[29.19654,40.59384],[29.19543,40.59247],[29.19286,40.59141],[29.19171,40.58942],[29.18959,40.5886],[29.19008,40.58807],[29.1894,40.58748],[29.18962,40.58707],[29.18928,40.58756],[29.18946,40.58854],[29.18849,40.5887],[29.18567,40.58654],[29.18256,40.58676],[29.18122,40.5852],[29.1802,40.58586],[29.1809,40.58606],[29.18147,40.58727],[29.1847,40.58752],[29.18684,40.58848],[29.18813,40.59045],[29.19053,40.58983],[29.19114,40.59178],[29.19529,40.59587],[29.19393,40.59644],[29.19415,40.59724],[29.19293,40.59771],[29.19003,40.5971],[29.18829,40.59834],[29.1877,40.59795],[29.18772,40.59842],[29.18723,40.59829],[29.18765,40.59919],[29.18728,40.59957],[29.18628,40.59933],[29.1846,40.6007],[29.18382,40.60042],[29.1846,40.60188],[29.18346,40.60546],[29.18449,40.60556],[29.18554,40.6033],[29.18808,40.60142],[29.18892,40.60229],[29.18958,40.60212],[29.18975,40.6015],[29.18876,40.60093],[29.18863,40.60011],[29.19042,40.59874],[29.19107,40.59914],[29.19478,40.59898],[29.19534,40.59935],[29.19352,40.60158],[29.19381,40.60229],[29.19728,40.60271],[29.19744,40.60199],[29.19891,40.60117],[29.1995,40.60166],[29.19943,40.60268],[29.20117,40.60237],[29.20209,40.60153]]]}},{"type":"Feature","properties":{"tur":"gol"},"geometry":{"type":"Polygon","coordinates":[[[28.46169,40.20711],[28.46473,40.2077],[28.46495,40.20832],[28.45936,40.21032],[28.45894,40.21083],[28.45924,40.21305],[28.45879,40.214],[28.45978,40.21519],[28.45793,40.21528],[28.46105,40.21717],[28.46559,40.21739],[28.46768,40.2168],[28.47114,40.21834],[28.4738,40.21864],[28.47664,40.21804],[28.47732,40.21739],[28.47724,40.21631],[28.48081,40.21515],[28.4842,40.21499],[28.48554,40.21564],[28.49468,40.21416],[28.4965,40.21345],[28.49691,40.21266],[28.50567,40.21014],[28.50887,40.20839],[28.50894,40.20875],[28.51527,40.20838],[28.51897,40.20943],[28.5222,40.21216],[28.52225,40.21268],[28.52405,40.21311],[28.52758,40.21515],[28.53182,40.21499],[28.53297,40.21431],[28.5336,40.21455],[28.54584,40.21264],[28.54603,40.21301],[28.55108,40.21274],[28.55332,40.2132],[28.5601,40.21273],[28.56052,40.21406],[28.56055,40.21231],[28.5634,40.21218],[28.56314,40.21158],[28.56856,40.21065],[28.56922,40.21004],[28.57283,40.20922],[28.57594,40.20915],[28.57654,40.20846],[28.5784,40.20797],[28.58145,40.20626],[28.58348,40.20578],[28.58898,40.2023],[28.59049,40.20267],[28.59167,40.20208],[28.59244,40.2024],[28.5925,40.20194],[28.59542,40.20107],[28.59631,40.19954],[28.60039,40.19816],[28.60007,40.19739],[28.60115,40.19586],[28.6019,40.19575],[28.60177,40.19499],[28.60299,40.19255],[28.60866,40.18927],[28.60884,40.18852],[28.60958,40.18824],[28.60897,40.18739],[28.60954,40.18706],[28.60976,40.18585],[28.61123,40.18492],[28.61317,40.18471],[28.61487,40.18541],[28.61322,40.19013],[28.61365,40.19087],[28.6131,40.19145],[28.61319,40.19278],[28.61512,40.19565],[28.61606,40.19563],[28.61684,40.1963],[28.61879,40.19614],[28.61974,40.19653],[28.6208,40.19643],[28.62241,40.1948],[28.62889,40.1945],[28.62891,40.19287],[28.62959,40.19567],[28.63052,40.19507],[28.63229,40.19592],[28.63413,40.1961],[28.63813,40.19496],[28.6399,40.19315],[28.6396,40.1911],[28.63991,40.19075],[28.63937,40.19053],[28.63963,40.18979],[28.63921,40.18866],[28.64247,40.18642],[28.64115,40.18669],[28.64503,40.18415],[28.64624,40.18417],[28.64646,40.18384],[28.64574,40.18379],[28.64621,40.18322],[28.6552,40.17898],[28.65646,40.17767],[28.66018,40.17725],[28.66151,40.17634],[28.66352,40.17716],[28.66402,40.17911],[28.66607,40.18133],[28.66639,40.183],[28.66814,40.18484],[28.67033,40.18567],[28.67032,40.18648],[28.67116,40.18737],[28.67451,40.1874],[28.67322,40.18629],[28.67329,40.18548],[28.67475,40.18598],[28.67493,40.18676],[28.67663,40.18684],[28.67665,40.18486],[28.67858,40.18186],[28.67855,40.18145],[28.6782,40.18166],[28.67757,40.18107],[28.67835,40.18084],[28.67863,40.17843],[28.67825,40.17811],[28.67756,40.17902],[28.67844,40.17763],[28.67716,40.17597],[28.67781,40.17519],[28.67953,40.17578],[28.68001,40.17463],[28.68132,40.17515],[28.68043,40.17416],[28.68089,40.17281],[28.68153,40.17236],[28.67946,40.17089],[28.67912,40.1698],[28.68032,40.16827],[28.68015,40.16732],[28.67638,40.16662],[28.6758,40.16611],[28.67555,40.16527],[28.67645,40.16375],[28.67925,40.16479],[28.68068,40.16712],[28.68717,40.16929],[28.68841,40.17028],[28.68922,40.17148],[28.68865,40.17219],[28.68538,40.17359],[28.68516,40.17439],[28.68602,40.17535],[28.68569,40.1778],[28.68654,40.17972],[28.68924,40.18172],[28.69098,40.18176],[28.69128,40.18331],[28.69265,40.184],[28.6954,40.18446],[28.69612,40.18507],[28.69803,40.18447],[28.7004,40.18544],[28.70111,40.18659],[28.7004,40.18979],[28.70386,40.19193],[28.70689,40.19157],[28.70805,40.19092],[28.70827,40.18972],[28.70772,40.18811],[28.70915,40.18566],[28.70996,40.1853],[28.71004,40.18405],[28.72064,40.18044],[28.72331,40.17809],[28.7238,40.17677],[28.72293,40.17591],[28.72295,40.1753],[28.72149,40.17443],[28.72223,40.17258],[28.72075,40.17143],[28.72113,40.16976],[28.72056,40.16821],[28.71617,40.16555],[28.71651,40.16387],[28.71731,40.16279],[28.71706,40.15946],[28.71635,40.15983],[28.71617,40.15946],[28.71766,40.15871],[28.71745,40.15848],[28.71387,40.15777],[28.71307,40.15883],[28.71343,40.16013],[28.71207,40.15959],[28.70712,40.15926],[28.70459,40.15978],[28.70262,40.15916],[28.69983,40.15565],[28.69573,40.15606],[28.69349,40.15557],[28.69002,40.15264],[28.68835,40.15223],[28.68946,40.15015],[28.68906,40.14833],[28.6894,40.14685],[28.68735,40.14694],[28.68899,40.14473],[28.68747,40.14168],[28.68449,40.13991],[28.67873,40.13895],[28.67636,40.1378],[28.67464,40.1359],[28.67374,40.13304],[28.66842,40.13201],[28.66722,40.13139],[28.66589,40.12915],[28.66397,40.12795],[28.65769,40.12666],[28.64839,40.12565],[28.64505,40.12465],[28.64037,40.12174],[28.63684,40.121],[28.63626,40.12149],[28.63557,40.12051],[28.63234,40.12025],[28.63189,40.12098],[28.629,40.12092],[28.62851,40.12185],[28.62766,40.12096],[28.62617,40.1209],[28.62472,40.12114],[28.62382,40.12194],[28.62249,40.12163],[28.62234,40.12228],[28.62122,40.12152],[28.62065,40.12249],[28.61743,40.1221],[28.6162,40.1232],[28.61581,40.12247],[28.61385,40.12269],[28.61433,40.12299],[28.61389,40.12398],[28.61284,40.12306],[28.61123,40.12287],[28.61057,40.1243],[28.61002,40.12426],[28.60977,40.1234],[28.60879,40.1243],[28.60798,40.12362],[28.6077,40.12492],[28.60462,40.12389],[28.60307,40.12454],[28.60224,40.12428],[28.60222,40.12517],[28.60172,40.1253],[28.60216,40.12624],[28.60123,40.12672],[28.60092,40.12567],[28.59963,40.12424],[28.59832,40.12457],[28.59767,40.12545],[28.5968,40.12502],[28.59502,40.1252],[28.59523,40.12599],[28.59429,40.12636],[28.59375,40.12523],[28.59097,40.1259],[28.59091,40.12664],[28.59048,40.1267],[28.59012,40.12582],[28.58901,40.1257],[28.58962,40.12609],[28.58957,40.12705],[28.59054,40.12729],[28.59157,40.12853],[28.59135,40.12893],[28.59052,40.12824],[28.5899,40.12857],[28.5903,40.12938],[28.58839,40.13062],[28.58781,40.13016],[28.58746,40.13108],[28.58419,40.13313],[28.57758,40.13578],[28.57553,40.13708],[28.57031,40.14185],[28.57135,40.14274],[28.5727,40.14238],[28.57349,40.14341],[28.57255,40.14484],[28.5735,40.1447],[28.57173,40.14617],[28.57038,40.14658],[28.5691,40.14808],[28.56931,40.149],[28.56891,40.14982],[28.5669,40.14934],[28.56665,40.1496],[28.56771,40.15083],[28.56602,40.15187],[28.56551,40.15134],[28.56497,40.15377],[28.56349,40.15426],[28.56196,40.15576],[28.56186,40.15507],[28.56148,40.15525],[28.56167,40.1565],[28.56052,40.1575],[28.56254,40.15784],[28.56274,40.15886],[28.56426,40.15963],[28.56302,40.16104],[28.56437,40.15972],[28.56522,40.1602],[28.56537,40.16229],[28.56434,40.16238],[28.56357,40.16425],[28.56402,40.16556],[28.5635,40.1653],[28.56169,40.16583],[28.55981,40.16523],[28.55934,40.16436],[28.55903,40.16527],[28.56232,40.16611],[28.56211,40.16723],[28.55697,40.16849],[28.55638,40.16943],[28.55583,40.1694],[28.55602,40.16871],[28.55482,40.16964],[28.55408,40.1689],[28.55294,40.16877],[28.553,40.16929],[28.55381,40.1693],[28.55237,40.16967],[28.55316,40.17001],[28.55298,40.1706],[28.5523,40.17079],[28.55113,40.1723],[28.55127,40.17287],[28.54992,40.17248],[28.55047,40.17294],[28.54976,40.17357],[28.54808,40.17389],[28.54666,40.1738],[28.54645,40.17338],[28.54593,40.17363],[28.5463,40.17395],[28.54505,40.17438],[28.54294,40.17407],[28.54199,40.17363],[28.54269,40.17329],[28.54238,40.17249],[28.54193,40.17332],[28.54019,40.17255],[28.53964,40.17323],[28.53902,40.17219],[28.53859,40.17261],[28.53622,40.17174],[28.53493,40.17204],[28.53309,40.17041],[28.53213,40.17006],[28.53156,40.17038],[28.53167,40.16987],[28.53043,40.16968],[28.52967,40.16895],[28.52963,40.16959],[28.52869,40.16968],[28.52861,40.16902],[28.52704,40.16848],[28.5264,40.169],[28.52315,40.16886],[28.51951,40.16952],[28.51814,40.17006],[28.51789,40.17133],[28.51518,40.16927],[28.51482,40.16962],[28.50685,40.17007],[28.49963,40.17273],[28.49883,40.17367],[28.49796,40.17357],[28.49696,40.17208],[28.49614,40.17247],[28.49618,40.17191],[28.49384,40.17163],[28.49517,40.17287],[28.49451,40.17404],[28.49482,40.17455],[28.49666,40.17564],[28.49525,40.17863],[28.49597,40.17996],[28.49798,40.18068],[28.4987,40.18174],[28.49421,40.18131],[28.49203,40.18199],[28.49132,40.18154],[28.48663,40.18401],[28.4809,40.18504],[28.48063,40.18441],[28.47992,40.18599],[28.4787,40.18592],[28.47982,40.18666],[28.48018,40.18748],[28.47754,40.18796],[28.47776,40.1863],[28.47563,40.1859],[28.46456,40.18925],[28.46341,40.19029],[28.45841,40.19261],[28.45709,40.19476],[28.45713,40.19681],[28.45599,40.19771],[28.45596,40.19842],[28.45707,40.19897],[28.45822,40.20124],[28.4597,40.20176],[28.46214,40.20417],[28.46552,40.20501],[28.46598,40.20563],[28.46543,40.20631],[28.46169,40.20711]]]}},{"type":"Feature","properties":{"tur":"gol"},"geometry":{"type":"Polygon","coordinates":[[[29.41285,40.4243],[29.41152,40.4228],[29.41036,40.42234],[29.40996,40.42144],[29.40817,40.42107],[29.40773,40.4205],[29.40751,40.42087],[29.4063,40.42005],[29.40664,40.41963],[29.40542,40.41948],[29.40518,40.419],[29.40399,40.41951],[29.40216,40.41851],[29.40086,40.41889],[29.40104,40.41849],[29.40021,40.41854],[29.40027,40.41792],[29.3978,40.41768],[29.39424,40.41822],[29.39334,40.41773],[29.39163,40.4179],[29.38932,40.41682],[29.38695,40.41683],[29.38158,40.41415],[29.38069,40.41413],[29.38006,40.41333],[29.37791,40.41292],[29.37147,40.41345],[29.36791,40.41474],[29.36214,40.41502],[29.35849,40.41647],[29.3558,40.41813],[29.35367,40.42001],[29.35321,40.41994],[29.35395,40.42014],[29.35286,40.42037],[29.3498,40.42327],[29.34454,40.42988],[29.34103,40.43612],[29.33854,40.44279],[29.33694,40.44962],[29.33666,40.45363],[29.33628,40.45363],[29.33668,40.45383],[29.33697,40.45352],[29.33619,40.45533],[29.33595,40.46135],[29.33601,40.46314],[29.33698,40.46292],[29.337,40.46334],[29.33602,40.46317],[29.33606,40.46469],[29.33641,40.46781],[29.33694,40.46895],[29.33749,40.4689],[29.33696,40.46936],[29.33726,40.47148],[29.33895,40.47202],[29.33932,40.47469],[29.34127,40.47533],[29.34141,40.47636],[29.34313,40.47649],[29.34274,40.47704],[29.3435,40.47792],[29.3451,40.4784],[29.34475,40.47908],[29.34584,40.47894],[29.34611,40.47946],[29.34822,40.48036],[29.34844,40.48117],[29.34911,40.48145],[29.35113,40.48206],[29.35306,40.48189],[29.35791,40.48344],[29.35962,40.48344],[29.36064,40.48445],[29.36238,40.48412],[29.36324,40.48451],[29.36338,40.48537],[29.36408,40.48588],[29.36686,40.48592],[29.3679,40.48665],[29.37042,40.4871],[29.37151,40.48825],[29.37196,40.49027],[29.37342,40.49081],[29.37327,40.49167],[29.37424,40.49283],[29.37383,40.49322],[29.3746,40.49331],[29.37506,40.49428],[29.37591,40.49392],[29.37688,40.49497],[29.37762,40.49511],[29.37751,40.49612],[29.38027,40.49666],[29.38035,40.4972],[29.38142,40.49696],[29.38188,40.49762],[29.38264,40.49746],[29.38284,40.4982],[29.38407,40.49854],[29.38412,40.49897],[29.38768,40.50098],[29.38916,40.50111],[29.38963,40.50181],[29.39141,40.50184],[29.39271,40.50252],[29.39668,40.50245],[29.39863,40.50194],[29.40353,40.50203],[29.40509,40.503],[29.40861,40.50305],[29.40742,40.50317],[29.40794,40.50393],[29.41048,40.5025],[29.41233,40.50222],[29.41277,40.50284],[29.41338,40.50232],[29.41669,40.50181],[29.42034,40.50141],[29.42099,40.50175],[29.42108,40.50131],[29.42624,40.50036],[29.42985,40.50041],[29.42946,40.50004],[29.43325,40.49931],[29.43647,40.49935],[29.44022,40.49855],[29.44101,40.4988],[29.44459,40.49731],[29.44881,40.49803],[29.44955,40.49779],[29.4492,40.49725],[29.44955,40.49692],[29.45039,40.49668],[29.45082,40.49745],[29.45065,40.49666],[29.4518,40.49658],[29.45425,40.49536],[29.45515,40.49592],[29.45616,40.49585],[29.45631,40.49534],[29.45721,40.49537],[29.45724,40.4949],[29.45921,40.49435],[29.45909,40.49362],[29.4617,40.49318],[29.46152,40.49387],[29.46272,40.49277],[29.46318,40.49305],[29.46274,40.49325],[29.46464,40.49446],[29.46566,40.494],[29.46778,40.49476],[29.46833,40.49567],[29.46895,40.49508],[29.46961,40.49561],[29.47078,40.49512],[29.47134,40.49563],[29.47146,40.49507],[29.47269,40.49516],[29.47393,40.49419],[29.47531,40.49487],[29.47637,40.49415],[29.47616,40.49452],[29.47734,40.49432],[29.4775,40.4951],[29.47761,40.49463],[29.47935,40.49445],[29.47948,40.49388],[29.48238,40.49219],[29.48348,40.49213],[29.48357,40.49153],[29.48548,40.49056],[29.48576,40.48985],[29.4888,40.48903],[29.48988,40.48946],[29.48985,40.48907],[29.49223,40.48915],[29.49294,40.48865],[29.4941,40.48889],[29.49965,40.4859],[29.50663,40.48492],[29.50698,40.48427],[29.51007,40.48308],[29.51408,40.48297],[29.51877,40.4837],[29.52198,40.48331],[29.52965,40.48377],[29.53503,40.48345],[29.53531,40.48336],[29.53487,40.48309],[29.53588,40.48283],[29.53681,40.4832],[29.53862,40.48179],[29.54045,40.48124],[29.54788,40.4809],[29.55011,40.48013],[29.55467,40.47975],[29.55605,40.47877],[29.55757,40.47845],[29.56209,40.48193],[29.56513,40.48294],[29.56951,40.48228],[29.57251,40.48024],[29.57304,40.48074],[29.57401,40.48015],[29.57299,40.48039],[29.57247,40.47988],[29.57278,40.47922],[29.57352,40.47913],[29.57364,40.47952],[29.57437,40.47868],[29.57548,40.47903],[29.57606,40.47837],[29.57764,40.47906],[29.57748,40.4794],[29.57794,40.47917],[29.57882,40.47966],[29.58016,40.48141],[29.58019,40.47994],[29.5829,40.48078],[29.58347,40.48197],[29.58431,40.48169],[29.58749,40.48216],[29.58861,40.48288],[29.59124,40.48249],[29.59268,40.48414],[29.59682,40.48475],[29.60215,40.48814],[29.60523,40.48952],[29.60744,40.48972],[29.60814,40.49019],[29.60794,40.4905],[29.60964,40.49119],[29.60983,40.49083],[29.61403,40.49201],[29.62101,40.49272],[29.62138,40.49313],[29.62763,40.49215],[29.631,40.49056],[29.63133,40.49162],[29.63188,40.49163],[29.63158,40.49109],[29.63205,40.4904],[29.63847,40.48786],[29.64108,40.4858],[29.64171,40.48471],[29.64295,40.48442],[29.64195,40.48365],[29.64203,40.48287],[29.64379,40.48082],[29.64545,40.4811],[29.64559,40.48034],[29.64611,40.48026],[29.64598,40.47967],[29.64647,40.47923],[29.64594,40.47886],[29.64754,40.47782],[29.64657,40.47759],[29.64687,40.47692],[29.64755,40.47679],[29.64673,40.47611],[29.647,40.47579],[29.64873,40.47516],[29.64969,40.47539],[29.65031,40.47462],[29.65048,40.4751],[29.65075,40.47515],[29.65106,40.47416],[29.65227,40.47416],[29.6525,40.47373],[29.65097,40.47368],[29.65102,40.47284],[29.65291,40.47108],[29.65551,40.47058],[29.65698,40.47127],[29.65922,40.46993],[29.65907,40.47059],[29.65966,40.47012],[29.65971,40.46934],[29.6607,40.46918],[29.66177,40.46623],[29.66103,40.46434],[29.65996,40.46338],[29.66242,40.46214],[29.66346,40.46045],[29.66347,40.45842],[29.66455,40.45848],[29.66807,40.45552],[29.66909,40.45595],[29.66903,40.45634],[29.67057,40.45602],[29.67199,40.45501],[29.67149,40.45456],[29.67175,40.45378],[29.67317,40.45347],[29.67358,40.45387],[29.67451,40.45274],[29.67605,40.45218],[29.67548,40.45094],[29.67559,40.44977],[29.67632,40.44901],[29.67658,40.44938],[29.67722,40.44909],[29.67733,40.44769],[29.67914,40.4475],[29.67942,40.44667],[29.68059,40.44606],[29.68369,40.44696],[29.68403,40.44637],[29.68493,40.44639],[29.68517,40.44557],[29.68683,40.44579],[29.68696,40.44518],[29.68739,40.44558],[29.68939,40.44473],[29.69238,40.44452],[29.69307,40.44499],[29.69495,40.44454],[29.69542,40.44504],[29.6951,40.44584],[29.69765,40.44594],[29.70019,40.44675],[29.7021,40.44821],[29.70206,40.44881],[29.70295,40.44951],[29.70406,40.44917],[29.70464,40.44953],[29.7066,40.44848],[29.70871,40.44878],[29.70961,40.44844],[29.7101,40.44892],[29.71098,40.44869],[29.71142,40.44772],[29.71265,40.4475],[29.71252,40.44688],[29.71368,40.44574],[29.71463,40.4456],[29.71581,40.44197],[29.71623,40.43878],[29.71596,40.43462],[29.71484,40.43344],[29.71304,40.4333],[29.71208,40.42786],[29.71093,40.42763],[29.70951,40.42427],[29.70869,40.42393],[29.70858,40.4245],[29.70808,40.42392],[29.70792,40.42335],[29.70873,40.42385],[29.70866,40.42299],[29.70726,40.42288],[29.70731,40.42205],[29.70822,40.42188],[29.70765,40.42092],[29.70712,40.42106],[29.7075,40.41975],[29.70697,40.41854],[29.70573,40.41863],[29.70675,40.418],[29.70653,40.41758],[29.70586,40.41792],[29.70524,40.41681],[29.70514,40.41579],[29.70577,40.41572],[29.70574,40.41514],[29.70152,40.40732],[29.70027,40.40643],[29.69545,40.40479],[29.69505,40.40364],[29.69422,40.40346],[29.69441,40.4029],[29.69344,40.40135],[29.69231,40.40065],[29.69205,40.39955],[29.69093,40.39837],[29.68585,40.39817],[29.68427,40.39715],[29.68141,40.39651],[29.67835,40.39385],[29.67592,40.39289],[29.67451,40.39328],[29.67362,40.39414],[29.6729,40.39406],[29.67225,40.39484],[29.67034,40.39496],[29.66874,40.39578],[29.66614,40.39519],[29.66275,40.39626],[29.66098,40.39625],[29.65696,40.39229],[29.65462,40.39065],[29.65143,40.39087],[29.64743,40.38863],[29.63681,40.38547],[29.63468,40.38557],[29.63292,40.38647],[29.62847,40.38662],[29.62576,40.38816],[29.62089,40.38963],[29.61349,40.38637],[29.60888,40.38555],[29.60568,40.38388],[29.59966,40.38424],[29.59217,40.38256],[29.58984,40.38275],[29.58626,40.38463],[29.58364,40.38532],[29.57931,40.38356],[29.57589,40.38333],[29.57524,40.38272],[29.57245,40.38211],[29.56949,40.38204],[29.56277,40.3839],[29.56014,40.38563],[29.55716,40.38574],[29.55016,40.385],[29.54616,40.38394],[29.54544,40.38428],[29.54391,40.38403],[29.54156,40.38458],[29.53744,40.38646],[29.53627,40.38652],[29.53273,40.38541],[29.53024,40.38542],[29.52781,40.38629],[29.52387,40.3889],[29.52313,40.38911],[29.52299,40.38874],[29.52175,40.38932],[29.51791,40.38747],[29.51323,40.38666],[29.51044,40.38701],[29.50869,40.38785],[29.50738,40.38744],[29.504,40.38811],[29.5024,40.38791],[29.49753,40.3892],[29.49647,40.38908],[29.49398,40.39124],[29.4926,40.39166],[29.49146,40.39096],[29.48723,40.39025],[29.48532,40.39059],[29.48328,40.39185],[29.48117,40.39112],[29.48006,40.39126],[29.47869,40.39223],[29.47566,40.39309],[29.47381,40.39289],[29.47049,40.39166],[29.46665,40.39196],[29.4619,40.39473],[29.45679,40.39461],[29.45146,40.39684],[29.4488,40.39887],[29.44772,40.39914],[29.44718,40.40006],[29.44664,40.40008],[29.44279,40.40346],[29.44236,40.40321],[29.44141,40.40449],[29.43964,40.4044],[29.438,40.40556],[29.43184,40.41225],[29.43152,40.4129],[29.43216,40.41301],[29.43156,40.41345],[29.43162,40.41403],[29.4312,40.41401],[29.43142,40.41461],[29.42926,40.41559],[29.42901,40.41612],[29.42966,40.41678],[29.42913,40.41747],[29.42738,40.41748],[29.42679,40.41833],[29.42565,40.41794],[29.42526,40.41862],[29.42483,40.41805],[29.42426,40.41812],[29.42073,40.4199],[29.4208,40.42074],[29.41934,40.4211],[29.41926,40.42162],[29.41808,40.42137],[29.41821,40.42177],[29.41757,40.42231],[29.41672,40.42237],[29.41612,40.42182],[29.41447,40.42257],[29.41285,40.4243]]]}},{"type":"Feature","properties":{"tur":"gol"},"geometry":{"type":"Polygon","coordinates":[[[28.78071,40.01737],[28.78195,40.01703],[28.78133,40.01639],[28.78241,40.01558],[28.78311,40.01349],[28.78283,40.01128],[28.78055,40.01346],[28.78038,40.01472],[28.77779,40.01696],[28.77762,40.01761],[28.77609,40.01578],[28.77622,40.01539],[28.775,40.01476],[28.77307,40.01692],[28.77255,40.0167],[28.77227,40.01722],[28.77332,40.01758],[28.77238,40.01884],[28.77265,40.02172],[28.77357,40.02204],[28.77375,40.0228],[28.77477,40.02356],[28.77488,40.02455],[28.77395,40.02525],[28.77416,40.02687],[28.77568,40.02798],[28.77589,40.02952],[28.77662,40.02971],[28.77766,40.03149],[28.7782,40.03407],[28.78022,40.03774],[28.77684,40.04095],[28.77717,40.04166],[28.77595,40.04314],[28.77514,40.04544],[28.77421,40.04614],[28.77285,40.04586],[28.77357,40.04664],[28.77371,40.04824],[28.77438,40.04936],[28.77422,40.05095],[28.77463,40.05074],[28.77454,40.05178],[28.77508,40.05275],[28.77623,40.04791],[28.77769,40.04694],[28.77831,40.04674],[28.78052,40.04739],[28.78243,40.04906],[28.7825,40.04822],[28.78187,40.04778],[28.78178,40.04697],[28.77944,40.04514],[28.78075,40.04376],[28.78086,40.04183],[28.78392,40.03944],[28.78251,40.03819],[28.78283,40.03689],[28.78168,40.03607],[28.7814,40.03421],[28.7802,40.03337],[28.78028,40.03243],[28.78161,40.03211],[28.78134,40.03142],[28.78008,40.03125],[28.77973,40.03072],[28.78007,40.03029],[28.77859,40.02857],[28.77825,40.02696],[28.77729,40.0262],[28.77752,40.02552],[28.77879,40.02465],[28.77834,40.02348],[28.78051,40.0243],[28.78116,40.02343],[28.7825,40.0234],[28.78378,40.02405],[28.78398,40.0234],[28.78509,40.02348],[28.78869,40.02502],[28.79007,40.02488],[28.79147,40.026],[28.79215,40.02849],[28.79159,40.03109],[28.79066,40.03233],[28.79045,40.03581],[28.79118,40.03322],[28.79275,40.03203],[28.79593,40.0331],[28.7977,40.03318],[28.80046,40.03488],[28.79801,40.03284],[28.79555,40.03225],[28.79341,40.03107],[28.7941,40.02902],[28.79512,40.02857],[28.79436,40.02801],[28.7941,40.02544],[28.79285,40.02365],[28.7937,40.02239],[28.79586,40.02501],[28.79835,40.02513],[28.79851,40.02454],[28.79979,40.02418],[28.80206,40.02549],[28.80195,40.02502],[28.80255,40.02466],[28.80163,40.02391],[28.80222,40.02358],[28.80109,40.0224],[28.80202,40.02164],[28.80192,40.02111],[28.80332,40.02069],[28.80253,40.01995],[28.8028,40.01935],[28.80198,40.01722],[28.80113,40.01636],[28.80577,40.01461],[28.80782,40.01479],[28.80906,40.01561],[28.81042,40.01558],[28.81096,40.01682],[28.81225,40.01734],[28.81326,40.0174],[28.81479,40.0164],[28.81716,40.01663],[28.81792,40.01734],[28.81968,40.01774],[28.82076,40.0173],[28.821,40.01805],[28.82203,40.01765],[28.82253,40.01793],[28.82259,40.01936],[28.82323,40.01966],[28.82282,40.01925],[28.82338,40.01894],[28.82315,40.01832],[28.8237,40.0176],[28.82005,40.01565],[28.82018,40.01481],[28.82287,40.01392],[28.82337,40.01325],[28.82456,40.01349],[28.82695,40.01061],[28.82803,40.01124],[28.83015,40.01129],[28.83132,40.01086],[28.82769,40.01096],[28.82747,40.01031],[28.82687,40.01024],[28.82419,40.01239],[28.81974,40.01372],[28.81827,40.01528],[28.81493,40.0147],[28.813,40.01515],[28.81248,40.01409],[28.81103,40.01331],[28.81172,40.01217],[28.81172,40.00978],[28.81451,40.00733],[28.81319,40.00729],[28.81375,40.00665],[28.81366,40.00467],[28.81407,40.00443],[28.81345,40.00361],[28.81446,40.00314],[28.81372,40.00236],[28.81538,40.00051],[28.81668,40.00004],[28.81617,39.99906],[28.81668,39.99737],[28.81518,39.99537],[28.81167,39.99425],[28.8096,39.99249],[28.81042,39.98993],[28.81257,39.98939],[28.8142,39.99004],[28.81372,39.9884],[28.81432,39.98755],[28.8131,39.98553],[28.81325,39.98505],[28.81177,39.98422],[28.81191,39.98374],[28.80963,39.98018],[28.81347,39.98059],[28.81531,39.98032],[28.81725,39.98298],[28.82041,39.9846],[28.82256,39.98409],[28.8231,39.98438],[28.82466,39.98306],[28.82572,39.98295],[28.82379,39.98269],[28.82398,39.98145],[28.82277,39.98008],[28.823,39.97958],[28.82148,39.97899],[28.8214,39.97833],[28.82204,39.97761],[28.82141,39.977],[28.82175,39.97656],[28.81969,39.97794],[28.81638,39.97676],[28.81335,39.97702],[28.81017,39.97598],[28.81005,39.9738],[28.80858,39.97103],[28.80919,39.97008],[28.81249,39.97002],[28.81281,39.96709],[28.81538,39.96475],[28.81578,39.96259],[28.81386,39.96001],[28.81651,39.95858],[28.81981,39.95854],[28.82129,39.95761],[28.82058,39.9558],[28.81677,39.95368],[28.81648,39.95275],[28.81687,39.9519],[28.8185,39.95119],[28.82662,39.95209],[28.82935,39.95173],[28.83267,39.95269],[28.83467,39.95236],[28.83666,39.95348],[28.83567,39.95644],[28.83731,39.95847],[28.83967,39.95794],[28.84108,39.9566],[28.8421,39.9569],[28.84139,39.95592],[28.8431,39.95429],[28.84489,39.95393],[28.84565,39.95425],[28.84755,39.95294],[28.85051,39.95336],[28.8526,39.95217],[28.84976,39.95314],[28.8472,39.95239],[28.84588,39.95372],[28.84314,39.95362],[28.84143,39.95445],[28.83997,39.95683],[28.83838,39.95764],[28.83724,39.95705],[28.83664,39.95587],[28.83747,39.95337],[28.83859,39.95373],[28.83853,39.95336],[28.83623,39.95203],[28.82953,39.95109],[28.8273,39.95148],[28.81765,39.95041],[28.81734,39.94943],[28.81819,39.94866],[28.81752,39.94728],[28.81698,39.947],[28.81772,39.94886],[28.81672,39.94942],[28.81696,39.95076],[28.81521,39.95222],[28.81509,39.95347],[28.81622,39.9549],[28.81967,39.95652],[28.8197,39.95715],[28.81562,39.95769],[28.81469,39.95672],[28.81349,39.95645],[28.8148,39.95808],[28.81293,39.95922],[28.81232,39.95901],[28.81176,39.96072],[28.81381,39.96205],[28.81393,39.96367],[28.81194,39.96541],[28.81084,39.96886],[28.80873,39.96879],[28.80697,39.96968],[28.80719,39.97141],[28.80832,39.9738],[28.80798,39.97461],[28.8059,39.97489],[28.80456,39.97446],[28.80534,39.97553],[28.80704,39.97581],[28.8089,39.97745],[28.81155,39.9784],[28.80864,39.97861],[28.80677,39.97983],[28.80725,39.98188],[28.80669,39.98258],[28.80719,39.98272],[28.80729,39.98336],[28.80848,39.98328],[28.80824,39.98469],[28.80935,39.98432],[28.81069,39.98705],[28.8074,39.9898],[28.80746,39.99111],[28.80687,39.99144],[28.8069,39.99355],[28.8088,39.99518],[28.8119,39.99674],[28.81178,39.99777],[28.81123,39.99772],[28.81266,39.99824],[28.81071,40.00042],[28.81028,40.00226],[28.81063,40.006],[28.81015,40.00634],[28.80953,40.00564],[28.80894,40.0058],[28.80903,40.00685],[28.80822,40.00727],[28.80929,40.00786],[28.8069,40.01068],[28.80797,40.01157],[28.8032,40.01145],[28.80165,40.0127],[28.80134,40.01235],[28.80023,40.01347],[28.79827,40.01381],[28.79738,40.01338],[28.79724,40.01387],[28.79662,40.01395],[28.79663,40.01598],[28.79624,40.01638],[28.79736,40.0181],[28.79869,40.01875],[28.79813,40.0204],[28.79537,40.01898],[28.79048,40.01861],[28.78966,40.01869],[28.78801,40.02039],[28.78548,40.01934],[28.78096,40.01995],[28.78045,40.01966],[28.78071,40.01737]]]}},{"type":"Feature","properties":{"tur":"gol"},"geometry":{"type":"Polygon","coordinates":[[[28.96234,40.11172],[28.96188,40.11361],[28.96417,40.11343],[28.96491,40.1139],[28.96554,40.11222],[28.96477,40.11182],[28.9647,40.11101],[28.96531,40.11014],[28.96414,40.10943],[28.96683,40.1073],[28.96597,40.10604],[28.96634,40.10543],[28.96589,40.10506],[28.9681,40.10411],[28.96865,40.10302],[28.9707,40.10252],[28.97246,40.10142],[28.97356,40.09983],[28.97666,40.10055],[28.9791,40.09982],[28.98017,40.09881],[28.9814,40.09942],[28.98332,40.0995],[28.98686,40.09876],[28.98962,40.09889],[28.99116,40.09835],[28.99147,40.09681],[28.9929,40.09662],[28.99325,40.09573],[28.99251,40.0964],[28.99136,40.09634],[28.99047,40.09728],[28.98505,40.0978],[28.98051,40.09698],[28.97734,40.09838],[28.97208,40.09872],[28.96976,40.10041],[28.96657,40.10043],[28.96566,40.10128],[28.96559,40.10202],[28.96477,40.10241],[28.96427,40.10136],[28.96138,40.0992],[28.9607,40.09961],[28.95613,40.09884],[28.95551,40.0977],[28.95511,40.09847],[28.95313,40.09902],[28.95125,40.09835],[28.94566,40.09817],[28.9447,40.09661],[28.94539,40.09839],[28.95157,40.09968],[28.95172,40.10168],[28.95339,40.10021],[28.95437,40.10063],[28.95638,40.10017],[28.95793,40.10053],[28.95808,40.10099],[28.95959,40.10059],[28.96092,40.10112],[28.96076,40.10198],[28.96157,40.10219],[28.96207,40.10365],[28.96179,40.10481],[28.96223,40.10695],[28.96185,40.10734],[28.96218,40.10793],[28.96086,40.10901],[28.96091,40.10989],[28.96234,40.11172]]]}},{"type":"Feature","properties":{"tur":"gol"},"geometry":{"type":"Polygon","coordinates":[[[29.49873,40.12996],[29.50056,40.13157],[29.50145,40.13154],[29.5022,40.13084],[29.50669,40.13136],[29.508,40.13347],[29.50845,40.13473],[29.50582,40.14054],[29.50596,40.14171],[29.50384,40.14435],[29.50358,40.14534],[29.50397,40.1467],[29.50301,40.14776],[29.50259,40.15017],[29.50429,40.15189],[29.50468,40.15288],[29.50776,40.15507],[29.51096,40.15865],[29.51186,40.16209],[29.50988,40.16284],[29.50836,40.16565],[29.509,40.16684],[29.51076,40.16771],[29.51137,40.16879],[29.51036,40.1691],[29.50695,40.16825],[29.50612,40.16975],[29.50717,40.171],[29.50683,40.17201],[29.50606,40.17241],[29.50298,40.17241],[29.50274,40.17455],[29.50703,40.1777],[29.50956,40.17831],[29.51047,40.17806],[29.51154,40.17908],[29.51367,40.17999],[29.51948,40.18132],[29.52132,40.18009],[29.52056,40.17972],[29.52141,40.17923],[29.52129,40.1789],[29.52273,40.17905],[29.52381,40.17482],[29.52709,40.17027],[29.52743,40.17034],[29.52765,40.1691],[29.52532,40.16853],[29.52336,40.16884],[29.51797,40.16816],[29.51423,40.16621],[29.51367,40.16502],[29.51396,40.16303],[29.51349,40.1607],[29.51395,40.1593],[29.51334,40.15662],[29.51192,40.15385],[29.51173,40.15438],[29.51029,40.15419],[29.51026,40.15351],[29.51131,40.15231],[29.51115,40.15176],[29.50644,40.14838],[29.50591,40.14584],[29.50797,40.14306],[29.50808,40.14098],[29.51072,40.13623],[29.51389,40.13806],[29.51541,40.13764],[29.51883,40.13529],[29.51318,40.13671],[29.51204,40.13496],[29.51164,40.13271],[29.51062,40.13087],[29.50866,40.13016],[29.50928,40.12908],[29.50864,40.12864],[29.50652,40.12906],[29.50501,40.13038],[29.50255,40.13003],[29.50107,40.13064],[29.49927,40.1296],[29.49873,40.12996]]]}}],"attribution":"© OpenStreetMap katkıcıları (ODbL)"}